[
    {
        "Altitude(m)": 604969.0892130102,
        "Argument of Periapsis(deg)": 0.0,
        "Eccentricity": 0.0,
        "Inclination(deg)": 60.0,
        "Latitude(deg)": -0.09272469779755929,
        "Longitude(deg)": -120.0224724785317,
        "Mean Anomaly(deg)": 0.0,
        "RAAN(deg)": 340.00000000000006,
        "Satellite Name": "Test1 1496",
        "Satellite Number": 1496,
        "Semi-Major Axis(m)": 6980739.136638005,
        "Time(s)": 0
    },
    {
        "Altitude(m)": 604900.0282610271,
        "Argument of Periapsis(deg)": 0.00010418945913296404,
        "Eccentricity": 0.0,
        "Inclination(deg)": 60.0,
        "Latitude(deg)": 0.4477009537810661,
        "Longitude(deg)": -119.75434896495028,
        "Mean Anomaly(deg)": 0.620106145461853,
        "RAAN(deg)": 339.99957995086027,
        "Satellite Name": "Test1 1496",
        "Satellite Number": 1496,
        "Semi-Major Axis(m)": 6980739.136638005,
        "Time(s)": 10
    }
]